GAOFEN-12 02            
1 48079U 21026A   26064.26151291  .00000672  00000+0  95332-4 0  9994
2 48079  97.9914  62.8835 0004232 194.8833 165.2255 14.80196777266389
PLEIADES NEO 3          
1 48268U 21034A   26064.32068087  .00000283  00000+0  42542-4 0  9993
2 48268  97.8936 140.5783 0001347  92.8316 267.3051 14.81674789262272
PLEIADES NEO 4          
1 49070U 21073E   26064.28690519 -.00000504  00000+0 -57445-4 0  9990
2 49070  97.8936 140.5408 0001286  91.8357 268.3003 14.81671054245983
LANDSAT 9               
1 49260U 21088A   26064.16271155  .00000518  00000+0  12494-3 0  9992
2 49260  98.1947 136.0219 0001138  90.2453 269.8876 14.57120028235858
CSG-2                   
1 51444U 22008A   26064.32140581  .00000328  00000+0  47759-4 0  9990
2 51444  97.8852 249.4198 0001346  79.2489 280.8876 14.82151853221203
GAOFEN-12 03            
1 52912U 22069A   26064.26970793  .00001756  00000+0  23975-3 0  9996
2 52912  97.8421 314.6958 0002192  95.5381 264.6081 14.79841441199248
SWOT                    
1 54754U 22173A   26064.30815354  .00000033  00000+0  24170-4 0  9990
2 54754  77.6118 175.5343 0000524 271.2274  88.8817 14.00168827164616
GAOFEN-12 04            
1 57654U 23123A   26064.29875168  .00001910  00000+0  25941-3 0  9996
2 57654  97.9131 343.8257 0001689  77.3002 282.8399 14.79988725137264
PARS 1                  
1 59065U 24039Q   26064.27137475  .00015933  00000+0  35896-3 0  9991
2 59065  97.4748  42.1526 0011793 123.5285 236.7090 15.43284210112600
RESURS-P 4              
1 59371U 24061A   26064.30682900  .00005553  00000+0  17729-3 0  9990
2 59371  97.2655  14.0431 0002677  63.5335 296.6182 15.32880329107857
LEGION 1                
1 59625U 24081A   26064.25126750  .00006038  00000+0  30486-3 0  9998
2 59625  97.5078 143.1874 0005450  34.7357 325.4231 15.17459117101784
LEGION 2                
1 59626U 24081B   26064.28739424  .00006311  00000+0  32682-3 0  9994
2 59626  97.5081 143.3065 0010591   0.8585 359.2665 15.16511834101793
ALOS-4 (DAICHI-4)       
1 60182U 24123A   26063.86866045  .00002957  00000+0  40265-3 0  9991
2 60182  97.9199 162.5386 0001574 103.3280 256.8107 14.79476865 90452
LEGION 3                
1 60452U 24146A   26063.93337698  .00007424  00000+0  39151-3 0  9997
2 60452  45.0002 229.4241 0013793 294.8110  65.1334 15.16085263 86207
LEGION 4                
1 60453U 24146B   26064.19525242  .00006806  00000+0  35984-3 0  9994
2 60453  45.0037 319.8708 0009433  76.1883 284.0044 15.16146857 85095
SENTINEL-2C             
1 60989U 24157A   26064.11660188  .00000170  00000+0  81427-4 0  9993
2 60989  98.5626 140.3927 0000762 101.3097 258.8172 14.30823180 78101
IONOSFERA-M 1           
1 61735U 24199A   26064.25136446  .00000077  00000+0  54153-4 0  9991
2 61735  98.7334 298.4344 0002105  82.2590 277.8827 14.22734284112929
