[{"OBJECT_NAME":"GAOFEN-12 02","OBJECT_ID":"2021-026A","EPOCH":"2026-03-05T06:16:34.715424","MEAN_MOTION":14.80196777,"ECCENTRICITY":0.00042325,"INCLINATION":97.9914,"RA_OF_ASC_NODE":62.8835,"ARG_OF_PERICENTER":194.8833,"MEAN_ANOMALY":165.2255,"EPHEMERIS_TYPE":0,"CLASSIFICATION_TYPE":"U","NORAD_CAT_ID":48079,"ELEMENT_SET_NO":999,"REV_AT_EPOCH":26638,"BSTAR":9.5332008e-5,"MEAN_MOTION_DOT":6.72e-6,"MEAN_MOTION_DDOT":0},{"OBJECT_NAME":"PLEIADES NEO 3","OBJECT_ID":"2021-034A","EPOCH":"2026-03-05T07:41:46.827168","MEAN_MOTION":14.81674789,"ECCENTRICITY":0.00013471,"INCLINATION":97.8936,"RA_OF_ASC_NODE":140.5783,"ARG_OF_PERICENTER":92.8316,"MEAN_ANOMALY":267.3051,"EPHEMERIS_TYPE":0,"CLASSIFICATION_TYPE":"U","NORAD_CAT_ID":48268,"ELEMENT_SET_NO":999,"REV_AT_EPOCH":26227,"BSTAR":4.2541538e-5,"MEAN_MOTION_DOT":2.83e-6,"MEAN_MOTION_DDOT":0},{"OBJECT_NAME":"PLEIADES NEO 4","OBJECT_ID":"2021-073E","EPOCH":"2026-03-05T06:53:08.608416","MEAN_MOTION":14.81671054,"ECCENTRICITY":0.00012863,"INCLINATION":97.8936,"RA_OF_ASC_NODE":140.5408,"ARG_OF_PERICENTER":91.8357,"MEAN_ANOMALY":268.3003,"EPHEMERIS_TYPE":0,"CLASSIFICATION_TYPE":"U","NORAD_CAT_ID":49070,"ELEMENT_SET_NO":999,"REV_AT_EPOCH":24598,"BSTAR":-5.7445254e-5,"MEAN_MOTION_DOT":-5.04e-6,"MEAN_MOTION_DDOT":0},{"OBJECT_NAME":"LANDSAT 9","OBJECT_ID":"2021-088A","EPOCH":"2026-03-05T03:54:18.277920","MEAN_MOTION":14.57120028,"ECCENTRICITY":0.00011388,"INCLINATION":98.1947,"RA_OF_ASC_NODE":136.0219,"ARG_OF_PERICENTER":90.2453,"MEAN_ANOMALY":269.8876,"EPHEMERIS_TYPE":0,"CLASSIFICATION_TYPE":"U","NORAD_CAT_ID":49260,"ELEMENT_SET_NO":999,"REV_AT_EPOCH":23585,"BSTAR":0.00012493514,"MEAN_MOTION_DOT":5.18e-6,"MEAN_MOTION_DDOT":0},{"OBJECT_NAME":"CSG-2","OBJECT_ID":"2022-008A","EPOCH":"2026-03-05T07:42:49.461984","MEAN_MOTION":14.82151853,"ECCENTRICITY":0.00013468,"INCLINATION":97.8852,"RA_OF_ASC_NODE":249.4198,"ARG_OF_PERICENTER":79.2489,"MEAN_ANOMALY":280.8876,"EPHEMERIS_TYPE":0,"CLASSIFICATION_TYPE":"U","NORAD_CAT_ID":51444,"ELEMENT_SET_NO":999,"REV_AT_EPOCH":22120,"BSTAR":4.775916e-5,"MEAN_MOTION_DOT":3.28e-6,"MEAN_MOTION_DDOT":0},{"OBJECT_NAME":"GAOFEN-12 03","OBJECT_ID":"2022-069A","EPOCH":"2026-03-05T06:28:22.765152","MEAN_MOTION":14.79841441,"ECCENTRICITY":0.00021923,"INCLINATION":97.8421,"RA_OF_ASC_NODE":314.6958,"ARG_OF_PERICENTER":95.5381,"MEAN_ANOMALY":264.6081,"EPHEMERIS_TYPE":0,"CLASSIFICATION_TYPE":"U","NORAD_CAT_ID":52912,"ELEMENT_SET_NO":999,"REV_AT_EPOCH":19924,"BSTAR":0.0002397528,"MEAN_MOTION_DOT":1.756e-5,"MEAN_MOTION_DDOT":0},{"OBJECT_NAME":"SWOT","OBJECT_ID":"2022-173A","EPOCH":"2026-03-05T07:23:44.465856","MEAN_MOTION":14.00168827,"ECCENTRICITY":5.244e-5,"INCLINATION":77.6118,"RA_OF_ASC_NODE":175.5343,"ARG_OF_PERICENTER":271.2274,"MEAN_ANOMALY":88.8817,"EPHEMERIS_TYPE":0,"CLASSIFICATION_TYPE":"U","NORAD_CAT_ID":54754,"ELEMENT_SET_NO":999,"REV_AT_EPOCH":16461,"BSTAR":2.4170068e-5,"MEAN_MOTION_DOT":3.3e-7,"MEAN_MOTION_DDOT":0},{"OBJECT_NAME":"GAOFEN-12 04","OBJECT_ID":"2023-123A","EPOCH":"2026-03-05T07:10:12.145152","MEAN_MOTION":14.79988725,"ECCENTRICITY":0.00016895,"INCLINATION":97.9131,"RA_OF_ASC_NODE":343.8257,"ARG_OF_PERICENTER":77.3002,"MEAN_ANOMALY":282.8399,"EPHEMERIS_TYPE":0,"CLASSIFICATION_TYPE":"U","NORAD_CAT_ID":57654,"ELEMENT_SET_NO":999,"REV_AT_EPOCH":13726,"BSTAR":0.0002594106,"MEAN_MOTION_DOT":1.91e-5,"MEAN_MOTION_DDOT":0},{"OBJECT_NAME":"PARS 1","OBJECT_ID":"2024-039Q","EPOCH":"2026-03-05T06:30:46.778400","MEAN_MOTION":15.4328421,"ECCENTRICITY":0.00117932,"INCLINATION":97.4748,"RA_OF_ASC_NODE":42.1526,"ARG_OF_PERICENTER":123.5285,"MEAN_ANOMALY":236.709,"EPHEMERIS_TYPE":0,"CLASSIFICATION_TYPE":"U","NORAD_CAT_ID":59065,"ELEMENT_SET_NO":999,"REV_AT_EPOCH":11260,"BSTAR":0.00035895778,"MEAN_MOTION_DOT":0.00015933,"MEAN_MOTION_DDOT":0},{"OBJECT_NAME":"RESURS-P 4","OBJECT_ID":"2024-061A","EPOCH":"2026-03-05T07:21:50.025600","MEAN_MOTION":15.32880329,"ECCENTRICITY":0.00026775,"INCLINATION":97.2655,"RA_OF_ASC_NODE":14.0431,"ARG_OF_PERICENTER":63.5335,"MEAN_ANOMALY":296.6182,"EPHEMERIS_TYPE":0,"CLASSIFICATION_TYPE":"U","NORAD_CAT_ID":59371,"ELEMENT_SET_NO":999,"REV_AT_EPOCH":10785,"BSTAR":0.00017729456,"MEAN_MOTION_DOT":5.553e-5,"MEAN_MOTION_DDOT":0},{"OBJECT_NAME":"LEGION 1","OBJECT_ID":"2024-081A","EPOCH":"2026-03-05T06:01:49.512000","MEAN_MOTION":15.17459117,"ECCENTRICITY":0.000545,"INCLINATION":97.5078,"RA_OF_ASC_NODE":143.1874,"ARG_OF_PERICENTER":34.7357,"MEAN_ANOMALY":325.4231,"EPHEMERIS_TYPE":0,"CLASSIFICATION_TYPE":"U","NORAD_CAT_ID":59625,"ELEMENT_SET_NO":999,"REV_AT_EPOCH":10178,"BSTAR":0.00030485682,"MEAN_MOTION_DOT":6.038e-5,"MEAN_MOTION_DDOT":0},{"OBJECT_NAME":"LEGION 2","OBJECT_ID":"2024-081B","EPOCH":"2026-03-05T06:53:50.862336","MEAN_MOTION":15.16511834,"ECCENTRICITY":0.00105917,"INCLINATION":97.5081,"RA_OF_ASC_NODE":143.3065,"ARG_OF_PERICENTER":0.8585,"MEAN_ANOMALY":359.2665,"EPHEMERIS_TYPE":0,"CLASSIFICATION_TYPE":"U","NORAD_CAT_ID":59626,"ELEMENT_SET_NO":999,"REV_AT_EPOCH":10179,"BSTAR":0.00032682388,"MEAN_MOTION_DOT":6.311e-5,"MEAN_MOTION_DDOT":0},{"OBJECT_NAME":"ALOS-4 (DAICHI-4)","OBJECT_ID":"2024-123A","EPOCH":"2026-03-04T20:50:52.262880","MEAN_MOTION":14.79476865,"ECCENTRICITY":0.00015745,"INCLINATION":97.9199,"RA_OF_ASC_NODE":162.5386,"ARG_OF_PERICENTER":103.328,"MEAN_ANOMALY":256.8107,"EPHEMERIS_TYPE":0,"CLASSIFICATION_TYPE":"U","NORAD_CAT_ID":60182,"ELEMENT_SET_NO":999,"REV_AT_EPOCH":9045,"BSTAR":0.0004026507,"MEAN_MOTION_DOT":2.957e-5,"MEAN_MOTION_DDOT":0},{"OBJECT_NAME":"LEGION 3","OBJECT_ID":"2024-146A","EPOCH":"2026-03-04T22:24:03.771072","MEAN_MOTION":15.16085263,"ECCENTRICITY":0.00137938,"INCLINATION":45.0002,"RA_OF_ASC_NODE":229.4241,"ARG_OF_PERICENTER":294.811,"MEAN_ANOMALY":65.1334,"EPHEMERIS_TYPE":0,"CLASSIFICATION_TYPE":"U","NORAD_CAT_ID":60452,"ELEMENT_SET_NO":999,"REV_AT_EPOCH":8620,"BSTAR":0.00039151038,"MEAN_MOTION_DOT":7.424e-5,"MEAN_MOTION_DDOT":0},{"OBJECT_NAME":"LEGION 4","OBJECT_ID":"2024-146B","EPOCH":"2026-03-05T04:41:09.809088","MEAN_MOTION":15.16146857,"ECCENTRICITY":0.0009433,"INCLINATION":45.0037,"RA_OF_ASC_NODE":319.8708,"ARG_OF_PERICENTER":76.1883,"MEAN_ANOMALY":284.0044,"EPHEMERIS_TYPE":0,"CLASSIFICATION_TYPE":"U","NORAD_CAT_ID":60453,"ELEMENT_SET_NO":999,"REV_AT_EPOCH":8509,"BSTAR":0.0003598373,"MEAN_MOTION_DOT":6.806e-5,"MEAN_MOTION_DDOT":0},{"OBJECT_NAME":"SENTINEL-2C","OBJECT_ID":"2024-157A","EPOCH":"2026-03-05T02:47:54.402432","MEAN_MOTION":14.3082318,"ECCENTRICITY":7.621e-5,"INCLINATION":98.5626,"RA_OF_ASC_NODE":140.3927,"ARG_OF_PERICENTER":101.3097,"MEAN_ANOMALY":258.8172,"EPHEMERIS_TYPE":0,"CLASSIFICATION_TYPE":"U","NORAD_CAT_ID":60989,"ELEMENT_SET_NO":999,"REV_AT_EPOCH":7810,"BSTAR":8.1427079e-5,"MEAN_MOTION_DOT":1.7e-6,"MEAN_MOTION_DDOT":0},{"OBJECT_NAME":"IONOSFERA-M 1","OBJECT_ID":"2024-199A","EPOCH":"2026-03-05T06:01:57.889344","MEAN_MOTION":14.22734284,"ECCENTRICITY":0.00021053,"INCLINATION":98.7334,"RA_OF_ASC_NODE":298.4344,"ARG_OF_PERICENTER":82.259,"MEAN_ANOMALY":277.8827,"EPHEMERIS_TYPE":0,"CLASSIFICATION_TYPE":"U","NORAD_CAT_ID":61735,"ELEMENT_SET_NO":999,"REV_AT_EPOCH":11292,"BSTAR":5.4153057e-5,"MEAN_MOTION_DOT":7.7e-7,"MEAN_MOTION_DDOT":0}]
